#aV2021  2 28  0  0  0.00000000     288 DD+AD WGS84 FIT  NGA
## 2147      0.00000000   300.00000000 59273 0.0000000000000
+   32     1  2  3  4  5  6  7  8  9 10 11 12 13 14 15 16 17
+         18 19 20 21 22 23 24 25 26 27 28 29 30 31 32  0  0
+          0  0  0  0  0  0  0  0  0  0  0  0  0  0  0  0  0
+          0  0  0  0  0  0  0  0  0  0  0  0  0  0  0  0  0
+          0  0  0  0  0  0  0  0  0  0  0  0  0  0  0  0  0
++         2  2  2  2  2  2  2  2  2  2  2  2  2  2  2  2  2
++         2  2  2  2  2  2  2  2  2  2  2  2  2  2  2  0  0
++         0  0  0  0  0  0  0  0  0  0  0  0  0  0  0  0  0
++         0  0  0  0  0  0  0  0  0  0  0  0  0  0  0  0  0
++         0  0  0  0  0  0  0  0  0  0  0  0  0  0  0  0  0
%c cc cc ccc ccc cccc cccc cccc cccc ccccc ccccc ccccc ccccc
%c cc cc ccc ccc cccc cccc cccc cccc ccccc ccccc ccccc ccccc
%f  0.0000000  0.000000000  0.00000000000  0.000000000000000
%f  0.0000000  0.000000000  0.00000000000  0.000000000000000
%i    0    0    0    0      0      0      0      0         0
%i    0    0    0    0      0      0      0      0         0
/*      NGA, ST. LOUIS,MO.                                  
/*   EPHEMERIS COMPUTED FROM 2 DAYS OF DATA                 
/*   EPOCHA v5 SMOOTHER                                     
/*   G2139 IERS2010 SATAF SATAPC                            
*  2021  2 28  0 15  0.00000000
P  1  16782.764877   4941.222442  19846.765739    752.088873                    
V  1   9885.180659  23600.097356 -13732.046853     -0.082114                    
P  2 -13849.158329 -22530.345665  -1572.926638   -581.281103                    
V  2   1122.381560  -3828.850506  31723.147916     -0.038145                    
P  3  19095.966561  -6888.745298  16990.619984    -94.696834                    
V  3 -11084.918662  18792.470436  20087.149409     -0.102862                    
P  4  26436.208473   1492.189949  -2422.525775   -183.142341                    
V  4   2724.882115   3108.042037  31524.165893     -0.024793                    
P  5 -10864.085080 -11292.660009 -21580.112778    -34.874195                    
V  5  15141.012586 -22461.843262   4341.772868     -0.010209                    
P  6  -4393.545719 -24413.083458   9484.411913     -1.321125                    
V  6   6805.453483  10000.704829  29145.943136      0.015093                    
P  7  11390.754843 -10970.805919 -20933.088753     73.678328                    
V  7  12219.765569  24630.105725  -6642.178576      0.128748                    
P  8  25671.581789   5341.883327  -5137.817851    -11.907449                    
V  8  -6610.373487   1802.552750 -30842.751950     -0.013638                    
P  9  21848.107784  -7742.103639 -13046.858549   -326.841518                    
V  9  16268.125992   3553.080234  25228.334035     -0.033613                    
P 10 -10429.933900  23301.954608   6917.909182    -70.753949                    
V 10  -7142.822376   5620.769287 -30444.183043     -0.080408                    
P 11  22878.301893   7132.972744  10615.127677    -12.498081                    
V 11   8962.373707  11937.047216 -26605.830855      0.106300                    
P 12 -18104.032996   1784.108157  19046.874941     -7.137529                    
V 12  14581.690749 -20020.170807  15682.830187     -0.052697                    
P 13 -19393.838347 -13218.045804 -12689.245425    102.172355                    
V 13  15888.808603   1486.746173 -25988.973653      0.043743                    
P 14  12597.323439 -22711.588644   5525.987302     99.075503                    
V 14   6532.528182  -3847.970483 -30657.628414      0.013312                    
P 15 -26130.219774  -3149.971593  -5140.135630   -166.454345                    
V 15   5962.638883  -3508.415354 -29912.912050      0.026011                    
P 16   7771.946246  13560.424015 -21646.816898   -286.636283                    
V 16 -17898.639319  20169.015872   6732.456022     -0.057229                    
P 17   6159.225001 -14002.690734  22141.585543    401.528216                    
V 17  26691.937810   4225.065035  -4850.997428      0.064007                    
P 18  -9071.007483  14355.433428 -20412.123568    349.053578                    
V 18 -11321.334963 -23322.013543 -11428.180246      0.013701                    
P 19  -3063.430905 -15130.903265  21344.151521    -32.768676                    
V 19  27278.572516   4812.305400   7141.473812      0.050206                    
P 20 -15435.956369  20564.840983  -6109.509240    524.489495                    
V 20    260.645694  -8585.983735 -30080.876369     -0.001719                    
P 21  19022.855625  11520.243702  15576.209599     99.187559                    
V 21   7524.008006  16783.950932 -22246.090383      0.031338                    
P 22  16479.071550   2246.645880  20876.467149   -670.573710                    
V 22 -12109.462405  23247.877329   7299.694448      0.077583                    
P 23 -16726.756045  20218.910538  -3986.267083    118.299130                    
V 23    507.624764  -5710.479093 -31297.258165     -0.003040                    
P 24 -18832.667942  -9392.234421  16187.458384      1.761483                    
V 24  -8204.210453 -19377.497655 -20092.108007     -0.005100                    
P 25 -19007.004885  15453.388791   9647.348500     89.193484                    
V 25   5005.557445 -12010.905287  28614.397798      0.075910                    
P 26    324.281491  21088.391134 -16036.329515     51.153032                    
V 26 -13040.705719  15901.403334  20979.015787      0.054539                    
P 27  17751.683093  12294.229363 -15869.899167    -84.725004                    
V 27 -19715.687029   -377.546096 -22217.280319     -0.072929                    
P 28  11083.259786 -22659.475950   9172.345279    609.318294                    
V 28   8456.545332  -6971.882276 -29055.136562     -0.054866                    
P 29 -22252.299566   5503.258049 -13493.004411   -302.969059                    
V 29 -16539.591017  -4258.320023  25580.276282     -0.069613                    
P 30   2874.532217 -21449.650068 -15201.178159   -391.261086                    
V 30  10227.411535  16866.545125 -22020.375308     -0.056232                    
P 31   5743.576767  24803.413700   6582.472619   -102.692446                    
V 31  -6389.631615  -6571.650292  30432.527002     -0.022639                    
P 32  -3872.503590  14984.750539  21671.573524     20.071332                    
V 32 -27192.559408  -2543.699964  -3280.164368      0.010387                    
EOF
